{
    "links": {
        "self": "http://www.neowsapp.com/rest/v1/neo/3425607?api_key=iIulBulltgU6a56xZRHN4H3l9WmuAYTsLGpBGhQ2"
    },
    "id": "3425607",
    "neo_reference_id": "3425607",
    "name": "(2008 QC1)",
    "designation": "2008 QC1",
    "nasa_jpl_url": "http://ssd.jpl.nasa.gov/sbdb.cgi?sstr=3425607",
    "absolute_magnitude_h": 24.2,
    "estimated_diameter": {
        "kilometers": {
            "estimated_diameter_min": 0.0384197891,
            "estimated_diameter_max": 0.0859092601
        },
        "meters": {
            "estimated_diameter_min": 38.4197891064,
            "estimated_diameter_max": 85.9092601232
        },
        "miles": {
            "estimated_diameter_min": 0.0238729428,
            "estimated_diameter_max": 0.0533815229
        },
        "feet": {
            "estimated_diameter_min": 126.0491808919,
            "estimated_diameter_max": 281.8545369825
        }
    },
    "is_potentially_hazardous_asteroid": false,
    "close_approach_data": [
        {
            "close_approach_date": "2008-08-15",
            "close_approach_date_full": "2008-Aug-15 12:16",
            "epoch_date_close_approach": 1218802560000,
            "relative_velocity": {
                "kilometers_per_second": "8.3151037207",
                "kilometers_per_hour": "29934.3733946051",
                "miles_per_hour": "18600.0555128867"
            },
            "miss_distance": {
                "astronomical": "0.0261201027",
                "lunar": "10.1607199503",
                "kilometers": "3907511.728101249",
                "miles": "2428015.1992812762"
            },
            "orbiting_body": "Earth"
        },
        {
            "close_approach_date": "2014-12-29",
            "close_approach_date_full": "2014-Dec-29 23:21",
            "epoch_date_close_approach": 1419895260000,
            "relative_velocity": {
                "kilometers_per_second": "3.8435926122",
                "kilometers_per_hour": "13836.933403935",
                "miles_per_hour": "8597.7323142395"
            },
            "miss_distance": {
                "astronomical": "1.0525612713",
                "lunar": "409.4463345357",
                "kilometers": "157460924.230972131",
                "miles": "97841681.3380761678"
            },
            "orbiting_body": "Juptr"
        },
        {
            "close_approach_date": "2097-11-28",
            "close_approach_date_full": "2097-Nov-28 15:27",
            "epoch_date_close_approach": 4036490820000,
            "relative_velocity": {
                "kilometers_per_second": "4.5608788602",
                "kilometers_per_hour": "16419.1638967838",
                "miles_per_hour": "10202.229922421"
            },
            "miss_distance": {
                "astronomical": "1.2073508561",
                "lunar": "469.6594830229",
                "kilometers": "180617116.415236507",
                "miles": "112230271.9535655166"
            },
            "orbiting_body": "Juptr"
        },
        {
            "close_approach_date": "2108-09-22",
            "close_approach_date_full": "2108-Sep-22 18:03",
            "epoch_date_close_approach": 4377780180000,
            "relative_velocity": {
                "kilometers_per_second": "15.281986229",
                "kilometers_per_hour": "55015.1504243687",
                "miles_per_hour": "34184.2749956306"
            },
            "miss_distance": {
                "astronomical": "0.2407531563",
                "lunar": "93.6529778007",
                "kilometers": "36016159.378257081",
                "miles": "22379403.6909104778"
            },
            "orbiting_body": "Earth"
        }
    ],
    "orbital_data": {
        "orbit_id": "13",
        "orbit_determination_date": "2017-04-06 09:03:04",
        "first_observation_date": "2008-08-23",
        "last_observation_date": "2008-09-22",
        "data_arc_in_days": 30,
        "observations_used": 39,
        "orbit_uncertainty": "7",
        "minimum_orbit_intersection": ".0304526",
        "jupiter_tisserand_invariant": "3.090",
        "epoch_osculation": "2459000.5",
        "eccentricity": ".6074380605760809",
        "semi_major_axis": "2.659301262945961",
        "inclination": "3.684371770480791",
        "ascending_node_longitude": "136.6100060881586",
        "orbital_period": "1583.980156471251",
        "perihelion_distance": "1.043940461294544",
        "perihelion_argument": "179.4382830426551",
        "aphelion_distance": "4.274662064597377",
        "perihelion_time": "2459449.663464131339",
        "mean_anomaly": "257.9161156617577",
        "mean_motion": ".2272755744630024",
        "equinox": "J2000",
        "orbit_class": {
            "orbit_class_type": "AMO",
            "orbit_class_description": "Near-Earth asteroid orbits similar to that of 1221 Amor",
            "orbit_class_range": "1.017 AU < q (perihelion) < 1.3 AU"
        }
    },
    "is_sentry_object": false
}